[{"street":"95 Hazelcrest Junction","city":"Odessa","state":"Texas","zip":"79764"},
{"street":"4 8th Street","city":"Jamaica","state":"New York","zip":"11480"},
{"street":"3 Mallory Drive","city":"Santa Cruz","state":"California","zip":"95064"},
{"street":"50 Crest Line Crossing","city":"Oakland","state":"California","zip":"94622"},
{"street":"130 5th Park","city":"Rochester","state":"New York","zip":"14619"},
{"street":"99837 Upham Court","city":"Evansville","state":"Indiana","zip":"47705"},
{"street":"257 Manitowish Parkway","city":"Lancaster","state":"Pennsylvania","zip":"17605"},
{"street":"07 Eagan Crossing","city":"Spokane","state":"Washington","zip":"99210"},
{"street":"3 Lunder Street","city":"Dayton","state":"Ohio","zip":"45414"},
{"street":"49026 Schiller Parkway","city":"Oklahoma City","state":"Oklahoma","zip":"73104"},
{"street":"26251 5th Lane","city":"Indianapolis","state":"Indiana","zip":"46231"},
{"street":"23357 Esker Way","city":"Omaha","state":"Nebraska","zip":"68134"},
{"street":"7664 Loftsgordon Crossing","city":"San Diego","state":"California","zip":"92145"},
{"street":"0 Michigan Lane","city":"Minneapolis","state":"Minnesota","zip":"55412"},
{"street":"0 Maple Wood Junction","city":"Cincinnati","state":"Ohio","zip":"45208"},
{"street":"9125 Corben Road","city":"Washington","state":"District of Columbia","zip":"20392"},
{"street":"45287 Thierer Junction","city":"Kansas City","state":"Missouri","zip":"64114"},
{"street":"04 Arkansas Alley","city":"Silver Spring","state":"Maryland","zip":"20918"},
{"street":"12 Kedzie Circle","city":"Richmond","state":"Virginia","zip":"23293"},
{"street":"67539 Mccormick Trail","city":"Scranton","state":"Pennsylvania","zip":"18514"},
{"street":"27641 Elgar Hill","city":"White Plains","state":"New York","zip":"10606"},
{"street":"47 Shasta Avenue","city":"Bakersfield","state":"California","zip":"93311"},
{"street":"5 Rigney Way","city":"Vienna","state":"Virginia","zip":"22184"},
{"street":"01980 Service Lane","city":"El Paso","state":"Texas","zip":"79905"},
{"street":"587 Swallow Court","city":"San Antonio","state":"Texas","zip":"78205"},
{"street":"3162 Luster Pass","city":"Wilkes Barre","state":"Pennsylvania","zip":"18763"},
{"street":"6 Harper Parkway","city":"Chicago","state":"Illinois","zip":"60697"},
{"street":"85304 Hoepker Drive","city":"Pittsburgh","state":"Pennsylvania","zip":"15220"},
{"street":"26208 Butterfield Way","city":"Denver","state":"Colorado","zip":"80217"},
{"street":"7912 1st Way","city":"Gadsden","state":"Alabama","zip":"35905"},
{"street":"46685 Porter Circle","city":"Bakersfield","state":"California","zip":"93399"},
{"street":"6 Esch Street","city":"Pueblo","state":"Colorado","zip":"81010"},
{"street":"231 Jay Road","city":"Amarillo","state":"Texas","zip":"79165"},
{"street":"68487 Shoshone Lane","city":"Raleigh","state":"North Carolina","zip":"27610"},
{"street":"07839 Grayhawk Avenue","city":"Pasadena","state":"California","zip":"91117"},
{"street":"987 Debs Alley","city":"Rockville","state":"Maryland","zip":"20851"},
{"street":"79 Park Meadow Parkway","city":"Winston Salem","state":"North Carolina","zip":"27110"},
{"street":"9 Montana Drive","city":"Washington","state":"District of Columbia","zip":"20088"},
{"street":"9532 Talisman Junction","city":"Charlotte","state":"North Carolina","zip":"28289"},
{"street":"27480 Eagan Terrace","city":"Sarasota","state":"Florida","zip":"34276"},
{"street":"0 Northport Court","city":"Tampa","state":"Florida","zip":"33673"},
{"street":"0526 Valley Edge Center","city":"Johnstown","state":"Pennsylvania","zip":"15906"},
{"street":"200 3rd Point","city":"Tulsa","state":"Oklahoma","zip":"74170"},
{"street":"7535 Anthes Alley","city":"Charlotte","state":"North Carolina","zip":"28256"},
{"street":"88 Monument Place","city":"Raleigh","state":"North Carolina","zip":"27621"},
{"street":"1 Pepper Wood Lane","city":"Flint","state":"Michigan","zip":"48555"},
{"street":"33 Charing Cross Avenue","city":"Kansas City","state":"Missouri","zip":"64101"},
{"street":"956 Lotheville Hill","city":"North Hollywood","state":"California","zip":"91606"},
{"street":"5 Coleman Avenue","city":"York","state":"Pennsylvania","zip":"17405"},
{"street":"9 5th Drive","city":"Wichita","state":"Kansas","zip":"67210"},
{"street":"470 Dottie Hill","city":"Springfield","state":"Illinois","zip":"62764"},
{"street":"18 Hagan Park","city":"Salt Lake City","state":"Utah","zip":"84170"},
{"street":"8 Holmberg Street","city":"Lafayette","state":"Louisiana","zip":"70593"},
{"street":"45 8th Court","city":"Memphis","state":"Tennessee","zip":"38161"},
{"street":"95662 Declaration Parkway","city":"Baltimore","state":"Maryland","zip":"21290"},
{"street":"97342 Esch Center","city":"Washington","state":"District of Columbia","zip":"56944"},
{"street":"1 Northport Street","city":"Phoenix","state":"Arizona","zip":"85072"},
{"street":"16 Bay Circle","city":"Tacoma","state":"Washington","zip":"98481"},
{"street":"23 Chinook Junction","city":"Omaha","state":"Nebraska","zip":"68134"},
{"street":"092 Myrtle Park","city":"Berkeley","state":"California","zip":"94705"},
{"street":"9817 7th Crossing","city":"Los Angeles","state":"California","zip":"90020"},
{"street":"5134 Nelson Crossing","city":"Springfield","state":"Massachusetts","zip":"01114"},
{"street":"3185 Blue Bill Park Trail","city":"Boston","state":"Massachusetts","zip":"02203"},
{"street":"13 Ryan Street","city":"Phoenix","state":"Arizona","zip":"85062"},
{"street":"7808 Riverside Junction","city":"Cheyenne","state":"Wyoming","zip":"82007"},
{"street":"46 Mccormick Street","city":"El Paso","state":"Texas","zip":"88535"},
{"street":"300 Londonderry Crossing","city":"Norwalk","state":"Connecticut","zip":"06854"},
{"street":"2186 Loeprich Place","city":"New Orleans","state":"Louisiana","zip":"70179"},
{"street":"955 Mendota Alley","city":"New York City","state":"New York","zip":"10160"},
{"street":"1452 Armistice Plaza","city":"Columbus","state":"Georgia","zip":"31998"},
{"street":"2486 Anthes Way","city":"Salem","state":"Oregon","zip":"97306"},
{"street":"12625 Hauk Avenue","city":"Canton","state":"Ohio","zip":"44760"},
{"street":"74 Grover Street","city":"Lincoln","state":"Nebraska","zip":"68505"},
{"street":"260 Heath Circle","city":"Norwalk","state":"Connecticut","zip":"06859"},
{"street":"5 Ridgeway Plaza","city":"Cincinnati","state":"Ohio","zip":"45223"},
{"street":"0199 Bluejay Parkway","city":"Youngstown","state":"Ohio","zip":"44511"},
{"street":"71 8th Center","city":"Albany","state":"Georgia","zip":"31704"},
{"street":"1921 Sage Circle","city":"Milwaukee","state":"Wisconsin","zip":"53215"},
{"street":"58921 Holy Cross Drive","city":"Naperville","state":"Illinois","zip":"60567"},
{"street":"5 Aberg Pass","city":"Saginaw","state":"Michigan","zip":"48609"},
{"street":"55 Towne Way","city":"Naples","state":"Florida","zip":"34108"},
{"street":"9701 New Castle Trail","city":"Irvine","state":"California","zip":"92710"},
{"street":"38065 Coleman Circle","city":"Minneapolis","state":"Minnesota","zip":"55458"},
{"street":"95 Dorton Place","city":"Tacoma","state":"Washington","zip":"98424"},
{"street":"38869 Daystar Place","city":"Lexington","state":"Kentucky","zip":"40596"},
{"street":"68802 Sundown Avenue","city":"Peoria","state":"Illinois","zip":"61656"},
{"street":"7 Forest Run Point","city":"Warren","state":"Michigan","zip":"48092"},
{"street":"8 Crescent Oaks Street","city":"Anaheim","state":"California","zip":"92805"},
{"street":"56 Bartelt Trail","city":"El Paso","state":"Texas","zip":"79989"},
{"street":"00788 Harbort Hill","city":"Pinellas Park","state":"Florida","zip":"34665"},
{"street":"9329 Northview Hill","city":"Englewood","state":"Colorado","zip":"80150"},
{"street":"2893 Bayside Alley","city":"Albuquerque","state":"New Mexico","zip":"87180"},
{"street":"1 Rockefeller Park","city":"Memphis","state":"Tennessee","zip":"38161"},
{"street":"52 Continental Lane","city":"Youngstown","state":"Ohio","zip":"44555"},
{"street":"0 Sachtjen Way","city":"Louisville","state":"Kentucky","zip":"40280"},
{"street":"50337 Stoughton Crossing","city":"High Point","state":"North Carolina","zip":"27264"},
{"street":"3506 Village Way","city":"Fort Worth","state":"Texas","zip":"76115"},
{"street":"5060 Lyons Circle","city":"Evansville","state":"Indiana","zip":"47737"},
{"street":"145 Division Hill","city":"Delray Beach","state":"Florida","zip":"33448"},
{"street":"68 Old Gate Park","city":"Rochester","state":"New York","zip":"14652"},
{"street":"79 Delladonna Parkway","city":"Lawrenceville","state":"Georgia","zip":"30045"},
{"street":"4268 Maryland Circle","city":"Levittown","state":"Pennsylvania","zip":"19058"},
{"street":"013 Coolidge Drive","city":"South Bend","state":"Indiana","zip":"46699"},
{"street":"5865 Dahle Park","city":"Roanoke","state":"Virginia","zip":"24024"},
{"street":"8 Hoepker Hill","city":"Scottsdale","state":"Arizona","zip":"85260"},
{"street":"6 Autumn Leaf Trail","city":"Saint Joseph","state":"Missouri","zip":"64504"},
{"street":"2218 Duke Center","city":"Las Vegas","state":"Nevada","zip":"89120"},
{"street":"0508 Kinsman Court","city":"Portland","state":"Oregon","zip":"97296"},
{"street":"78470 Golf View Crossing","city":"Lincoln","state":"Nebraska","zip":"68517"},
{"street":"01 Petterle Trail","city":"Dallas","state":"Texas","zip":"75236"},
{"street":"480 Sugar Park","city":"Cheyenne","state":"Wyoming","zip":"82007"},
{"street":"632 Rieder Parkway","city":"El Paso","state":"Texas","zip":"88525"},
{"street":"75 Arapahoe Drive","city":"Johnson City","state":"Tennessee","zip":"37605"},
{"street":"4 Golf Course Drive","city":"Metairie","state":"Louisiana","zip":"70033"},
{"street":"757 Heffernan Trail","city":"Springfield","state":"Massachusetts","zip":"01105"},
{"street":"1 Moulton Plaza","city":"Lansing","state":"Michigan","zip":"48919"},
{"street":"99437 Veith Hill","city":"Reno","state":"Nevada","zip":"89505"},
{"street":"4700 Talmadge Circle","city":"Washington","state":"District of Columbia","zip":"20580"},
{"street":"1809 Bashford Court","city":"Albuquerque","state":"New Mexico","zip":"87140"},
{"street":"02 Schiller Center","city":"Birmingham","state":"Alabama","zip":"35210"},
{"street":"0 Nancy Alley","city":"Washington","state":"District of Columbia","zip":"20268"},
{"street":"2965 Arizona Lane","city":"Arlington","state":"Virginia","zip":"22217"},
{"street":"524 Sunfield Center","city":"Cincinnati","state":"Ohio","zip":"45233"},
{"street":"903 Hanover Alley","city":"Gadsden","state":"Alabama","zip":"35905"},
{"street":"3519 Helena Drive","city":"Salt Lake City","state":"Utah","zip":"84115"},
{"street":"03647 Lukken Place","city":"Memphis","state":"Tennessee","zip":"38136"},
{"street":"1029 Manitowish Alley","city":"Memphis","state":"Tennessee","zip":"38109"},
{"street":"57 Mcbride Alley","city":"Salt Lake City","state":"Utah","zip":"84140"},
{"street":"696 Spohn Way","city":"Roanoke","state":"Virginia","zip":"24040"},
{"street":"1265 Jenna Pass","city":"New York City","state":"New York","zip":"10029"},
{"street":"46098 Pankratz Trail","city":"Knoxville","state":"Tennessee","zip":"37939"},
{"street":"4 Leroy Avenue","city":"Denver","state":"Colorado","zip":"80291"},
{"street":"2815 Springs Alley","city":"San Francisco","state":"California","zip":"94121"},
{"street":"043 Melody Circle","city":"Jacksonville","state":"Florida","zip":"32225"},
{"street":"4 Gateway Avenue","city":"Bakersfield","state":"California","zip":"93399"},
{"street":"817 Macpherson Road","city":"Dallas","state":"Texas","zip":"75241"},
{"street":"463 Fallview Crossing","city":"Johnstown","state":"Pennsylvania","zip":"15906"},
{"street":"976 Kingsford Terrace","city":"New Castle","state":"Pennsylvania","zip":"16107"},
{"street":"7395 Hanson Pass","city":"Orlando","state":"Florida","zip":"32803"},
{"street":"09 Sachs Hill","city":"Minneapolis","state":"Minnesota","zip":"55441"},
{"street":"692 Havey Road","city":"Boca Raton","state":"Florida","zip":"33499"},
{"street":"0 Hoard Road","city":"Anchorage","state":"Alaska","zip":"99522"},
{"street":"094 Leroy Road","city":"Charlotte","state":"North Carolina","zip":"28256"},
{"street":"45946 Gulseth Pass","city":"Trenton","state":"New Jersey","zip":"08608"},
{"street":"58 Stang Drive","city":"Indianapolis","state":"Indiana","zip":"46239"},
{"street":"108 Montana Center","city":"Houston","state":"Texas","zip":"77260"},
{"street":"827 Fallview Place","city":"New Orleans","state":"Louisiana","zip":"70149"},
{"street":"66568 Merry Way","city":"Memphis","state":"Tennessee","zip":"38168"},
{"street":"1472 Reindahl Lane","city":"Charlotte","state":"North Carolina","zip":"28256"},
{"street":"76 2nd Crossing","city":"Houston","state":"Texas","zip":"77260"},
{"street":"037 Pearson Street","city":"Washington","state":"District of Columbia","zip":"20566"},
{"street":"0 Algoma Street","city":"Dallas","state":"Texas","zip":"75205"},
{"street":"90 Sugar Circle","city":"Bronx","state":"New York","zip":"10454"},
{"street":"94 Southridge Street","city":"Stockton","state":"California","zip":"95205"},
{"street":"9 Alpine Drive","city":"Boca Raton","state":"Florida","zip":"33432"},
{"street":"4 Chinook Junction","city":"Frankfort","state":"Kentucky","zip":"40618"},
{"street":"87363 Di Loreto Circle","city":"Atlanta","state":"Georgia","zip":"30306"},
{"street":"2 Vera Terrace","city":"Tacoma","state":"Washington","zip":"98417"},
{"street":"3199 New Castle Avenue","city":"Fairfield","state":"Connecticut","zip":"06825"},
{"street":"07 Derek Pass","city":"Fort Lauderdale","state":"Florida","zip":"33336"},
{"street":"10797 Cascade Circle","city":"New York City","state":"New York","zip":"10004"},
{"street":"3419 Homewood Road","city":"Minneapolis","state":"Minnesota","zip":"55480"},
{"street":"71291 Lotheville Center","city":"Tucson","state":"Arizona","zip":"85720"},
{"street":"794 Brentwood Junction","city":"Wilmington","state":"Delaware","zip":"19886"},
{"street":"19 Moulton Parkway","city":"Memphis","state":"Tennessee","zip":"38197"},
{"street":"27046 Bay Terrace","city":"Bethesda","state":"Maryland","zip":"20892"},
{"street":"8 6th Point","city":"Jacksonville","state":"Florida","zip":"32277"},
{"street":"2988 Center Terrace","city":"Salt Lake City","state":"Utah","zip":"84110"},
{"street":"613 Clyde Gallagher Way","city":"Olympia","state":"Washington","zip":"98516"},
{"street":"722 Forest Run Center","city":"Missoula","state":"Montana","zip":"59806"},
{"street":"53 Stoughton Plaza","city":"North Hollywood","state":"California","zip":"91606"},
{"street":"02681 Buhler Pass","city":"Watertown","state":"Massachusetts","zip":"02472"},
{"street":"6 Orin Circle","city":"Allentown","state":"Pennsylvania","zip":"18105"},
{"street":"38800 Prentice Drive","city":"Dearborn","state":"Michigan","zip":"48126"},
{"street":"478 Maple Pass","city":"Washington","state":"District of Columbia","zip":"20299"},
{"street":"7 Barby Terrace","city":"Albuquerque","state":"New Mexico","zip":"87195"},
{"street":"72355 Prairieview Crossing","city":"Los Angeles","state":"California","zip":"90040"},
{"street":"8 Dennis Alley","city":"Washington","state":"District of Columbia","zip":"20226"},
{"street":"993 Moose Terrace","city":"Pittsburgh","state":"Pennsylvania","zip":"15220"},
{"street":"87792 Waywood Crossing","city":"Alexandria","state":"Virginia","zip":"22309"},
{"street":"369 Golf View Parkway","city":"Dayton","state":"Ohio","zip":"45414"},
{"street":"24 Pine View Place","city":"Trenton","state":"New Jersey","zip":"08603"},
{"street":"5 Mallard Alley","city":"Las Vegas","state":"Nevada","zip":"89105"},
{"street":"0 Trailsway Crossing","city":"Nashville","state":"Tennessee","zip":"37228"},
{"street":"9040 Logan Pass","city":"Dallas","state":"Texas","zip":"75323"},
{"street":"075 Russell Way","city":"Crawfordsville","state":"Indiana","zip":"47937"},
{"street":"5898 Lotheville Court","city":"Los Angeles","state":"California","zip":"90050"},
{"street":"59179 Sunnyside Park","city":"Fort Worth","state":"Texas","zip":"76162"},
{"street":"0 Calypso Street","city":"Atlanta","state":"Georgia","zip":"30328"},
{"street":"20561 Arrowood Street","city":"West Palm Beach","state":"Florida","zip":"33405"},
{"street":"90483 Vidon Street","city":"Asheville","state":"North Carolina","zip":"28815"},
{"street":"2 Farragut Crossing","city":"Trenton","state":"New Jersey","zip":"08619"},
{"street":"5 Debra Drive","city":"Fort Lauderdale","state":"Florida","zip":"33355"},
{"street":"8732 Merchant Trail","city":"Salt Lake City","state":"Utah","zip":"84199"},
{"street":"997 Oneill Pass","city":"Las Vegas","state":"Nevada","zip":"89178"},
{"street":"8 3rd Alley","city":"Hartford","state":"Connecticut","zip":"06160"},
{"street":"01 Miller Park","city":"Honolulu","state":"Hawaii","zip":"96805"},
{"street":"412 Thompson Terrace","city":"Stockton","state":"California","zip":"95205"},
{"street":"381 Meadow Ridge Point","city":"Long Beach","state":"California","zip":"90805"},
{"street":"15381 Surrey Way","city":"Houston","state":"Texas","zip":"77218"},
{"street":"20953 Calypso Place","city":"Saint Joseph","state":"Missouri","zip":"64504"},
{"street":"2 Merry Hill","city":"Tulsa","state":"Oklahoma","zip":"74116"},
{"street":"44 Stuart Place","city":"Colorado Springs","state":"Colorado","zip":"80915"},
{"street":"4 Meadow Vale Place","city":"Clearwater","state":"Florida","zip":"34629"},
{"street":"30301 Macpherson Hill","city":"Monticello","state":"Minnesota","zip":"55565"},
{"street":"72280 Meadow Valley Avenue","city":"Lansing","state":"Michigan","zip":"48901"},
{"street":"75 John Wall Street","city":"Lexington","state":"Kentucky","zip":"40596"},
{"street":"0369 Northview Road","city":"Amarillo","state":"Texas","zip":"79165"},
{"street":"99819 Westend Circle","city":"Trenton","state":"New Jersey","zip":"08638"},
{"street":"6 Kennedy Alley","city":"Bradenton","state":"Florida","zip":"34205"},
{"street":"2656 Scott Avenue","city":"Cleveland","state":"Ohio","zip":"44118"},
{"street":"91 Buena Vista Crossing","city":"Cedar Rapids","state":"Iowa","zip":"52405"},
{"street":"952 Sachtjen Center","city":"East Saint Louis","state":"Illinois","zip":"62205"},
{"street":"551 Corscot Pass","city":"Louisville","state":"Kentucky","zip":"40233"},
{"street":"98289 Derek Trail","city":"Houston","state":"Texas","zip":"77201"},
{"street":"71266 Warrior Park","city":"Orlando","state":"Florida","zip":"32885"},
{"street":"67359 Green Park","city":"Waterbury","state":"Connecticut","zip":"06721"},
{"street":"08 Village Place","city":"Las Vegas","state":"Nevada","zip":"89166"},
{"street":"772 Pawling Street","city":"Washington","state":"District of Columbia","zip":"20051"},
{"street":"7366 Arrowood Terrace","city":"Baton Rouge","state":"Louisiana","zip":"70815"},
{"street":"39526 Briar Crest Hill","city":"San Diego","state":"California","zip":"92176"},
{"street":"4978 Hayes Crossing","city":"Cincinnati","state":"Ohio","zip":"45999"},
{"street":"00 Nobel Point","city":"Toledo","state":"Ohio","zip":"43656"},
{"street":"355 La Follette Drive","city":"Moreno Valley","state":"California","zip":"92555"},
{"street":"21505 Buell Park","city":"College Station","state":"Texas","zip":"77844"},
{"street":"8 5th Pass","city":"Gilbert","state":"Arizona","zip":"85297"},
{"street":"503 Warbler Park","city":"San Diego","state":"California","zip":"92165"},
{"street":"002 Summer Ridge Parkway","city":"Olympia","state":"Washington","zip":"98506"},
{"street":"7202 Vahlen Junction","city":"Bonita Springs","state":"Florida","zip":"34135"},
{"street":"806 Laurel Junction","city":"Jefferson City","state":"Missouri","zip":"65110"},
{"street":"12600 Jenifer Point","city":"Tuscaloosa","state":"Alabama","zip":"35405"},
{"street":"68 Judy Center","city":"Sacramento","state":"California","zip":"94207"},
{"street":"0663 Alpine Avenue","city":"San Diego","state":"California","zip":"92105"},
{"street":"8325 Mariners Cove Way","city":"Hampton","state":"Virginia","zip":"23663"},
{"street":"4 Ryan Street","city":"Little Rock","state":"Arkansas","zip":"72209"},
{"street":"20 Mcguire Crossing","city":"Visalia","state":"California","zip":"93291"},
{"street":"37 Oak Valley Plaza","city":"Syracuse","state":"New York","zip":"13217"},
{"street":"5939 Muir Plaza","city":"Huntsville","state":"Alabama","zip":"35805"},
{"street":"93 Oak Pass","city":"Panama City","state":"Florida","zip":"32405"},
{"street":"070 Mosinee Place","city":"Dallas","state":"Texas","zip":"75387"},
{"street":"708 Pankratz Terrace","city":"Tampa","state":"Florida","zip":"33694"},
{"street":"1548 Crescent Oaks Avenue","city":"Miami","state":"Florida","zip":"33261"},
{"street":"01069 Rowland Court","city":"New Haven","state":"Connecticut","zip":"06510"},
{"street":"22792 Westport Court","city":"Los Angeles","state":"California","zip":"90094"},
{"street":"787 Hintze Park","city":"New Haven","state":"Connecticut","zip":"06505"},
{"street":"40518 Novick Crossing","city":"Tampa","state":"Florida","zip":"33610"},
{"street":"4858 Mockingbird Circle","city":"New York City","state":"New York","zip":"10125"},
{"street":"2 Pennsylvania Avenue","city":"Hialeah","state":"Florida","zip":"33018"},
{"street":"40478 Old Gate Trail","city":"San Diego","state":"California","zip":"92121"},
{"street":"49 Gerald Street","city":"Atlanta","state":"Georgia","zip":"31132"},
{"street":"44 Clyde Gallagher Center","city":"Levittown","state":"Pennsylvania","zip":"19058"},
{"street":"63198 Dakota Center","city":"Springfield","state":"Ohio","zip":"45505"},
{"street":"935 Ilene Drive","city":"Grand Rapids","state":"Michigan","zip":"49505"},
{"street":"969 Macpherson Way","city":"Miami","state":"Florida","zip":"33134"},
{"street":"6106 Towne Place","city":"Hialeah","state":"Florida","zip":"33013"},
{"street":"35897 Clove Way","city":"Los Angeles","state":"California","zip":"90050"},
{"street":"3667 Westerfield Lane","city":"Memphis","state":"Tennessee","zip":"38104"},
{"street":"703 Arizona Hill","city":"Shawnee Mission","state":"Kansas","zip":"66286"},
{"street":"6 Wayridge Trail","city":"San Jose","state":"California","zip":"95133"},
{"street":"725 Charing Cross Trail","city":"Washington","state":"District of Columbia","zip":"20442"},
{"street":"79229 Elka Trail","city":"Fort Worth","state":"Texas","zip":"76110"},
{"street":"69 Steensland Plaza","city":"Grand Rapids","state":"Michigan","zip":"49510"},
{"street":"3936 Clarendon Point","city":"Tallahassee","state":"Florida","zip":"32314"},
{"street":"3 Derek Terrace","city":"Englewood","state":"Colorado","zip":"80150"},
{"street":"40519 Fordem Park","city":"Austin","state":"Texas","zip":"78749"},
{"street":"1 Ridge Oak Pass","city":"Brooklyn","state":"New York","zip":"11225"},
{"street":"04 Golf View Parkway","city":"Fort Lauderdale","state":"Florida","zip":"33355"},
{"street":"589 Hanson Road","city":"Mount Vernon","state":"New York","zip":"10557"},
{"street":"43521 Harper Way","city":"Bonita Springs","state":"Florida","zip":"34135"},
{"street":"1030 Kinsman Lane","city":"Cincinnati","state":"Ohio","zip":"45233"},
{"street":"1 Veith Place","city":"Phoenix","state":"Arizona","zip":"85062"},
{"street":"34881 Farwell Circle","city":"Birmingham","state":"Alabama","zip":"35290"},
{"street":"589 East Circle","city":"New Haven","state":"Connecticut","zip":"06520"},
{"street":"90515 Haas Road","city":"Huntington Beach","state":"California","zip":"92648"},
{"street":"229 Maywood Crossing","city":"Van Nuys","state":"California","zip":"91499"},
{"street":"44 Buena Vista Park","city":"Grand Rapids","state":"Michigan","zip":"49518"},
{"street":"76 Thackeray Road","city":"Indianapolis","state":"Indiana","zip":"46221"},
{"street":"737 Holy Cross Drive","city":"Columbia","state":"South Carolina","zip":"29208"},
{"street":"0838 Sloan Hill","city":"Lubbock","state":"Texas","zip":"79491"},
{"street":"22895 Loeprich Plaza","city":"Albany","state":"New York","zip":"12227"},
{"street":"45 Merrick Trail","city":"Wichita Falls","state":"Texas","zip":"76305"},
{"street":"84 Park Meadow Place","city":"Rochester","state":"New York","zip":"14614"},
{"street":"377 Reindahl Lane","city":"Seminole","state":"Florida","zip":"34642"},
{"street":"83853 Bay Alley","city":"Lancaster","state":"Pennsylvania","zip":"17605"},
{"street":"079 David Parkway","city":"Simi Valley","state":"California","zip":"93094"},
{"street":"80 Morning Avenue","city":"Springfield","state":"Massachusetts","zip":"01105"},
{"street":"0312 Bowman Way","city":"Tulsa","state":"Oklahoma","zip":"74193"},
{"street":"077 Kings Avenue","city":"Memphis","state":"Tennessee","zip":"38114"},
{"street":"4 Chive Lane","city":"Jacksonville","state":"Florida","zip":"32204"},
{"street":"76478 Northfield Crossing","city":"Charlotte","state":"North Carolina","zip":"28247"},
{"street":"958 Kennedy Way","city":"Hattiesburg","state":"Mississippi","zip":"39404"},
{"street":"91 Superior Drive","city":"Youngstown","state":"Ohio","zip":"44505"},
{"street":"35 Bartillon Lane","city":"Albuquerque","state":"New Mexico","zip":"87105"},
{"street":"4344 Gina Road","city":"Spring","state":"Texas","zip":"77386"},
{"street":"527 Raven Crossing","city":"White Plains","state":"New York","zip":"10633"},
{"street":"487 Prairieview Drive","city":"Independence","state":"Missouri","zip":"64054"},
{"street":"0 Garrison Terrace","city":"Tucson","state":"Arizona","zip":"85732"},
{"street":"7 Porter Hill","city":"Denver","state":"Colorado","zip":"80204"},
{"street":"6 Hooker Hill","city":"Pasadena","state":"California","zip":"91199"},
{"street":"98 Roxbury Center","city":"Modesto","state":"California","zip":"95397"},
{"street":"94313 Moland Road","city":"Escondido","state":"California","zip":"92030"},
{"street":"71 Leroy Point","city":"Valley Forge","state":"Pennsylvania","zip":"19495"},
{"street":"09 Nevada Circle","city":"Salt Lake City","state":"Utah","zip":"84110"},
{"street":"77187 Lake View Plaza","city":"Colorado Springs","state":"Colorado","zip":"80910"},
{"street":"246 Summit Pass","city":"Saint Louis","state":"Missouri","zip":"63126"},
{"street":"0739 Waubesa Terrace","city":"San Francisco","state":"California","zip":"94177"},
{"street":"4547 Homewood Road","city":"Madison","state":"Wisconsin","zip":"53716"},
{"street":"6760 Dennis Junction","city":"Omaha","state":"Nebraska","zip":"68134"},
{"street":"481 Carioca Pass","city":"Columbus","state":"Ohio","zip":"43204"},
{"street":"125 Waywood Crossing","city":"Portland","state":"Maine","zip":"04109"},
{"street":"6953 Sundown Parkway","city":"Lake Worth","state":"Florida","zip":"33462"},
{"street":"0 Daystar Lane","city":"Shreveport","state":"Louisiana","zip":"71161"},
{"street":"151 Meadow Valley Pass","city":"Canton","state":"Ohio","zip":"44710"},
{"street":"253 Pierstorff Trail","city":"Baltimore","state":"Maryland","zip":"21281"},
{"street":"8 Commercial Drive","city":"Montpelier","state":"Vermont","zip":"05609"},
{"street":"1 Anthes Lane","city":"Irvine","state":"California","zip":"92619"},
{"street":"812 Maywood Point","city":"Phoenix","state":"Arizona","zip":"85020"},
{"street":"0 Anzinger Park","city":"Carson City","state":"Nevada","zip":"89714"},
{"street":"2 Spenser Place","city":"Mobile","state":"Alabama","zip":"36610"},
{"street":"601 Blackbird Pass","city":"Phoenix","state":"Arizona","zip":"85025"},
{"street":"8849 Arizona Alley","city":"Miami","state":"Florida","zip":"33245"},
{"street":"7750 Pennsylvania Hill","city":"Austin","state":"Texas","zip":"78754"},
{"street":"618 West Parkway","city":"Oklahoma City","state":"Oklahoma","zip":"73129"},
{"street":"84591 Brickson Park Lane","city":"Washington","state":"District of Columbia","zip":"20041"},
{"street":"8 Morrow Road","city":"Tucson","state":"Arizona","zip":"85754"},
{"street":"60958 Reinke Center","city":"Dallas","state":"Texas","zip":"75246"},
{"street":"3329 Bluestem Crossing","city":"Arlington","state":"Virginia","zip":"22212"},
{"street":"3 Sunnyside Hill","city":"Greeley","state":"Colorado","zip":"80638"},
{"street":"6335 Loftsgordon Point","city":"Lincoln","state":"Nebraska","zip":"68524"},
{"street":"288 Northview Trail","city":"San Francisco","state":"California","zip":"94164"},
{"street":"10004 Comanche Road","city":"Gainesville","state":"Georgia","zip":"30506"},
{"street":"392 Arizona Hill","city":"Spokane","state":"Washington","zip":"99252"},
{"street":"79508 Bartillon Pass","city":"New York City","state":"New York","zip":"10045"},
{"street":"26 Marcy Avenue","city":"Anniston","state":"Alabama","zip":"36205"},
{"street":"4 Schiller Way","city":"Las Vegas","state":"Nevada","zip":"89140"},
{"street":"3840 Troy Court","city":"Fairbanks","state":"Alaska","zip":"99790"},
{"street":"1505 Browning Avenue","city":"Columbus","state":"Ohio","zip":"43284"},
{"street":"7037 Macpherson Place","city":"Salt Lake City","state":"Utah","zip":"84199"},
{"street":"87 Marcy Junction","city":"Dayton","state":"Ohio","zip":"45426"},
{"street":"54302 Dexter Trail","city":"Springfield","state":"Missouri","zip":"65898"},
{"street":"067 Old Shore Junction","city":"Chicago","state":"Illinois","zip":"60604"},
{"street":"93286 Muir Place","city":"Detroit","state":"Michigan","zip":"48275"},
{"street":"95770 Commercial Trail","city":"Oklahoma City","state":"Oklahoma","zip":"73147"},
{"street":"35 Lillian Plaza","city":"Canton","state":"Ohio","zip":"44760"},
{"street":"08932 Express Plaza","city":"Chicago","state":"Illinois","zip":"60636"},
{"street":"29728 Gerald Point","city":"San Diego","state":"California","zip":"92196"},
{"street":"46837 Banding Avenue","city":"Spokane","state":"Washington","zip":"99205"},
{"street":"7 Ridge Oak Center","city":"Sioux City","state":"Iowa","zip":"51105"},
{"street":"96834 Grover Alley","city":"San Diego","state":"California","zip":"92105"},
{"street":"6539 2nd Pass","city":"Huntsville","state":"Texas","zip":"77343"},
{"street":"0887 Pearson Lane","city":"New York City","state":"New York","zip":"10170"},
{"street":"53 Fuller Hill","city":"Philadelphia","state":"Pennsylvania","zip":"19160"},
{"street":"240 Arapahoe Trail","city":"Wichita Falls","state":"Texas","zip":"76305"},
{"street":"86 Lyons Center","city":"Gulfport","state":"Mississippi","zip":"39505"},
{"street":"00312 Kipling Pass","city":"New Orleans","state":"Louisiana","zip":"70179"},
{"street":"1 Independence Avenue","city":"Bridgeport","state":"Connecticut","zip":"06673"},
{"street":"75 Melody Park","city":"Littleton","state":"Colorado","zip":"80126"},
{"street":"04815 Loeprich Street","city":"Clearwater","state":"Florida","zip":"33758"},
{"street":"1810 Kennedy Alley","city":"Nashville","state":"Tennessee","zip":"37245"},
{"street":"3355 Redwing Avenue","city":"Anchorage","state":"Alaska","zip":"99522"},
{"street":"53410 Hanson Park","city":"Lexington","state":"Kentucky","zip":"40596"},
{"street":"53 Anderson Center","city":"Berkeley","state":"California","zip":"94712"},
{"street":"481 Oriole Circle","city":"Canton","state":"Ohio","zip":"44760"},
{"street":"20 Myrtle Crossing","city":"Clearwater","state":"Florida","zip":"34629"},
{"street":"734 Service Drive","city":"Atlanta","state":"Georgia","zip":"30306"},
{"street":"67059 Beilfuss Street","city":"Memphis","state":"Tennessee","zip":"38161"},
{"street":"5 Hoepker Circle","city":"Great Neck","state":"New York","zip":"11024"},
{"street":"21 Brentwood Junction","city":"Washington","state":"District of Columbia","zip":"20215"},
{"street":"826 Marcy Park","city":"Roanoke","state":"Virginia","zip":"24029"},
{"street":"66066 Norway Maple Road","city":"Miami","state":"Florida","zip":"33147"},
{"street":"8 Main Lane","city":"Montgomery","state":"Alabama","zip":"36125"},
{"street":"02304 Transport Way","city":"Spring","state":"Texas","zip":"77388"},
{"street":"3080 Elmside Lane","city":"Brooklyn","state":"New York","zip":"11210"},
{"street":"809 Fordem Avenue","city":"Chicago","state":"Illinois","zip":"60652"},
{"street":"993 Waywood Way","city":"Erie","state":"Pennsylvania","zip":"16510"},
{"street":"5 Kinsman Drive","city":"Colorado Springs","state":"Colorado","zip":"80935"},
{"street":"89165 Oxford Court","city":"Evansville","state":"Indiana","zip":"47747"},
{"street":"70419 Rigney Center","city":"Huntington","state":"West Virginia","zip":"25709"},
{"street":"28086 Grover Court","city":"Tyler","state":"Texas","zip":"75705"},
{"street":"1940 Prairie Rose Court","city":"Kansas City","state":"Missouri","zip":"64179"},
{"street":"079 Bluestem Court","city":"New Haven","state":"Connecticut","zip":"06510"},
{"street":"01 Sunnyside Circle","city":"Salt Lake City","state":"Utah","zip":"84170"},
{"street":"0512 Grasskamp Terrace","city":"Ashburn","state":"Virginia","zip":"22093"},
{"street":"9 Green Road","city":"Newark","state":"New Jersey","zip":"07112"},
{"street":"37 Riverside Road","city":"Jackson","state":"Mississippi","zip":"39236"},
{"street":"420 Calypso Point","city":"Port Washington","state":"New York","zip":"11054"},
{"street":"1 Heath Way","city":"Young America","state":"Minnesota","zip":"55557"},
{"street":"04091 Riverside Park","city":"Minneapolis","state":"Minnesota","zip":"55423"},
{"street":"704 Riverside Alley","city":"Detroit","state":"Michigan","zip":"48275"},
{"street":"4 Manitowish Place","city":"Billings","state":"Montana","zip":"59105"},
{"street":"39 Roth Road","city":"Fort Pierce","state":"Florida","zip":"34949"},
{"street":"31 Hollow Ridge Avenue","city":"Carlsbad","state":"California","zip":"92013"},
{"street":"1 Mallory Avenue","city":"Northridge","state":"California","zip":"91328"},
{"street":"34764 Fieldstone Hill","city":"Birmingham","state":"Alabama","zip":"35254"},
{"street":"80209 Toban Plaza","city":"Saint Louis","state":"Missouri","zip":"63143"},
{"street":"4 Barby Road","city":"Syracuse","state":"New York","zip":"13251"},
{"street":"30 Sachtjen Street","city":"Roanoke","state":"Virginia","zip":"24009"},
{"street":"44 Rigney Junction","city":"Memphis","state":"Tennessee","zip":"38188"},
{"street":"4518 Rigney Center","city":"Phoenix","state":"Arizona","zip":"85077"},
{"street":"89 Chive Drive","city":"Memphis","state":"Tennessee","zip":"38150"},
{"street":"3950 Shasta Street","city":"Spokane","state":"Washington","zip":"99260"},
{"street":"15672 Carberry Circle","city":"Washington","state":"District of Columbia","zip":"20442"},
{"street":"28335 Northwestern Plaza","city":"North Hollywood","state":"California","zip":"91606"},
{"street":"01 Sullivan Crossing","city":"Biloxi","state":"Mississippi","zip":"39534"},
{"street":"0499 Shoshone Alley","city":"Saint Louis","state":"Missouri","zip":"63121"},
{"street":"957 Michigan Circle","city":"New Orleans","state":"Louisiana","zip":"70165"},
{"street":"297 Elmside Avenue","city":"Charleston","state":"South Carolina","zip":"29424"},
{"street":"941 Sachs Alley","city":"Philadelphia","state":"Pennsylvania","zip":"19184"},
{"street":"48481 Tennessee Junction","city":"Houston","state":"Texas","zip":"77080"},
{"street":"32073 Heffernan Circle","city":"Atlanta","state":"Georgia","zip":"30311"},
{"street":"2462 Logan Circle","city":"Trenton","state":"New Jersey","zip":"08608"},
{"street":"198 Oriole Parkway","city":"Gadsden","state":"Alabama","zip":"35905"},
{"street":"96 Crownhardt Lane","city":"Topeka","state":"Kansas","zip":"66699"},
{"street":"7043 Pennsylvania Alley","city":"Saint Louis","state":"Missouri","zip":"63116"},
{"street":"56 Pleasure Parkway","city":"Memphis","state":"Tennessee","zip":"38126"},
{"street":"34122 Homewood Junction","city":"Arlington","state":"Texas","zip":"76004"},
{"street":"633 Meadow Valley Junction","city":"Anaheim","state":"California","zip":"92825"},
{"street":"13 Miller Plaza","city":"Fort Worth","state":"Texas","zip":"76115"},
{"street":"17634 Holy Cross Alley","city":"Sunnyvale","state":"California","zip":"94089"},
{"street":"4 Northfield Terrace","city":"Huntsville","state":"Alabama","zip":"35810"},
{"street":"3 Granby Circle","city":"Rochester","state":"New York","zip":"14646"},
{"street":"3 Village Green Pass","city":"Fairbanks","state":"Alaska","zip":"99790"},
{"street":"9183 Pepper Wood Street","city":"Charlotte","state":"North Carolina","zip":"28256"},
{"street":"55 Vidon Junction","city":"Clearwater","state":"Florida","zip":"33763"},
{"street":"24 Pepper Wood Terrace","city":"Tucson","state":"Arizona","zip":"85715"},
{"street":"17 Maywood Point","city":"Colorado Springs","state":"Colorado","zip":"80951"},
{"street":"54375 Magdeline Avenue","city":"Naples","state":"Florida","zip":"33961"},
{"street":"5563 Cherokee Trail","city":"San Francisco","state":"California","zip":"94177"},
{"street":"5 Menomonie Way","city":"Glendale","state":"Arizona","zip":"85311"},
{"street":"4 Green Ridge Crossing","city":"Kansas City","state":"Missouri","zip":"64142"},
{"street":"92966 Canary Avenue","city":"Jackson","state":"Mississippi","zip":"39296"},
{"street":"6 American Ash Crossing","city":"Philadelphia","state":"Pennsylvania","zip":"19160"},
{"street":"9380 Anderson Alley","city":"Brockton","state":"Massachusetts","zip":"02305"},
{"street":"69657 Holy Cross Center","city":"Fresno","state":"California","zip":"93704"},
{"street":"91328 Bayside Hill","city":"Fresno","state":"California","zip":"93709"},
{"street":"85 Laurel Plaza","city":"Lansing","state":"Michigan","zip":"48919"},
{"street":"73 Portage Plaza","city":"Portland","state":"Oregon","zip":"97255"},
{"street":"7602 Jenifer Drive","city":"Mesa","state":"Arizona","zip":"85215"},
{"street":"8812 Bunting Trail","city":"Boca Raton","state":"Florida","zip":"33487"},
{"street":"92320 Talmadge Drive","city":"Columbus","state":"Ohio","zip":"43210"},
{"street":"77 Hagan Crossing","city":"Washington","state":"District of Columbia","zip":"20566"},
{"street":"57050 Dovetail Crossing","city":"Boston","state":"Massachusetts","zip":"02114"},
{"street":"241 Del Sol Pass","city":"Houston","state":"Texas","zip":"77075"},
{"street":"6428 Lighthouse Bay Drive","city":"Greensboro","state":"North Carolina","zip":"27409"},
{"street":"9832 Sloan Pass","city":"Charleston","state":"West Virginia","zip":"25362"},
{"street":"902 Dahle Lane","city":"Syracuse","state":"New York","zip":"13217"},
{"street":"370 Heffernan Parkway","city":"Houston","state":"Texas","zip":"77223"},
{"street":"9 David Parkway","city":"Bakersfield","state":"California","zip":"93381"},
{"street":"6066 Jenifer Point","city":"Honolulu","state":"Hawaii","zip":"96840"},
{"street":"3 Shasta Avenue","city":"Naples","state":"Florida","zip":"34102"},
{"street":"6718 Quincy Trail","city":"Des Moines","state":"Iowa","zip":"50369"},
{"street":"15018 Portage Junction","city":"Seattle","state":"Washington","zip":"98195"},
{"street":"18559 Waxwing Junction","city":"Cincinnati","state":"Ohio","zip":"45254"},
{"street":"928 Portage Park","city":"Evansville","state":"Indiana","zip":"47747"},
{"street":"9 Mccormick Crossing","city":"Oklahoma City","state":"Oklahoma","zip":"73135"},
{"street":"7 Gerald Alley","city":"Orlando","state":"Florida","zip":"32885"},
{"street":"7 Graceland Point","city":"Portland","state":"Oregon","zip":"97296"},
{"street":"3283 Cherokee Terrace","city":"Newark","state":"New Jersey","zip":"07188"},
{"street":"9562 Springs Lane","city":"Monroe","state":"Louisiana","zip":"71213"},
{"street":"855 Morningstar Court","city":"Norfolk","state":"Virginia","zip":"23551"},
{"street":"57 Anzinger Court","city":"Washington","state":"District of Columbia","zip":"20520"},
{"street":"2 Hintze Hill","city":"Mobile","state":"Alabama","zip":"36628"},
{"street":"89885 Leroy Lane","city":"Fort Worth","state":"Texas","zip":"76178"},
{"street":"5260 Spenser Circle","city":"Denver","state":"Colorado","zip":"80299"},
{"street":"34054 Loomis Junction","city":"Boston","state":"Massachusetts","zip":"02216"},
{"street":"51 Heath Alley","city":"Topeka","state":"Kansas","zip":"66667"},
{"street":"062 Schurz Parkway","city":"Brooklyn","state":"New York","zip":"11210"},
{"street":"5 Pawling Place","city":"Naples","state":"Florida","zip":"34108"},
{"street":"2802 Mockingbird Trail","city":"Akron","state":"Ohio","zip":"44393"},
{"street":"662 Debra Street","city":"Colorado Springs","state":"Colorado","zip":"80925"},
{"street":"73361 Grayhawk Alley","city":"Washington","state":"District of Columbia","zip":"20540"},
{"street":"68595 Sauthoff Hill","city":"Montgomery","state":"Alabama","zip":"36125"},
{"street":"12257 Schurz Junction","city":"Ocala","state":"Florida","zip":"34479"},
{"street":"200 Meadow Ridge Drive","city":"Lafayette","state":"Louisiana","zip":"70593"},
{"street":"46 Paget Trail","city":"Birmingham","state":"Alabama","zip":"35290"},
{"street":"1140 Sheridan Circle","city":"New Brunswick","state":"New Jersey","zip":"08922"},
{"street":"7690 Gina Trail","city":"Wichita","state":"Kansas","zip":"67260"},
{"street":"097 Johnson Avenue","city":"Lees Summit","state":"Missouri","zip":"64082"},
{"street":"191 Hermina Center","city":"Toledo","state":"Ohio","zip":"43610"},
{"street":"9 Johnson Junction","city":"Saint Paul","state":"Minnesota","zip":"55114"},
{"street":"3811 Commercial Hill","city":"Arlington","state":"Texas","zip":"76011"},
{"street":"884 Butternut Plaza","city":"Duluth","state":"Minnesota","zip":"55805"},
{"street":"181 Leroy Place","city":"Buffalo","state":"New York","zip":"14233"},
{"street":"9987 Knutson Circle","city":"San Diego","state":"California","zip":"92196"},
{"street":"6181 Glacier Hill Plaza","city":"Washington","state":"District of Columbia","zip":"20073"},
{"street":"20337 Wayridge Terrace","city":"Lubbock","state":"Texas","zip":"79452"},
{"street":"58398 Mcguire Street","city":"Tucson","state":"Arizona","zip":"85748"},
{"street":"91670 International Street","city":"Arlington","state":"Virginia","zip":"22225"},
{"street":"6 Oriole Plaza","city":"Kansas City","state":"Kansas","zip":"66112"},
{"street":"17171 East Alley","city":"Des Moines","state":"Iowa","zip":"50310"},
{"street":"6296 Melvin Center","city":"Denver","state":"Colorado","zip":"80204"},
{"street":"624 Bunker Hill Point","city":"Salem","state":"Oregon","zip":"97312"},
{"street":"684 Evergreen Terrace","city":"Des Moines","state":"Iowa","zip":"50315"},
{"street":"75 Killdeer Place","city":"Phoenix","state":"Arizona","zip":"85045"},
{"street":"478 Veith Street","city":"Cleveland","state":"Ohio","zip":"44118"},
{"street":"524 Dorton Park","city":"Longview","state":"Texas","zip":"75605"},
{"street":"29581 Scofield Road","city":"Washington","state":"District of Columbia","zip":"20392"},
{"street":"2860 Maryland Trail","city":"Seattle","state":"Washington","zip":"98158"},
{"street":"5512 Cherokee Street","city":"Palm Bay","state":"Florida","zip":"32909"},
{"street":"6 Dayton Place","city":"Arlington","state":"Texas","zip":"76011"},
{"street":"481 Sugar Parkway","city":"Lincoln","state":"Nebraska","zip":"68510"},
{"street":"9608 Linden Terrace","city":"Pompano Beach","state":"Florida","zip":"33064"},
{"street":"56 Express Junction","city":"Tucson","state":"Arizona","zip":"85715"},
{"street":"69124 Lukken Crossing","city":"Raleigh","state":"North Carolina","zip":"27690"},
{"street":"08 Chinook Court","city":"Cincinnati","state":"Ohio","zip":"45213"},
{"street":"97 Lyons Plaza","city":"Staten Island","state":"New York","zip":"10310"},
{"street":"9 American Place","city":"Sacramento","state":"California","zip":"94257"},
{"street":"0482 Debra Center","city":"Charlotte","state":"North Carolina","zip":"28278"},
{"street":"8 Vernon Parkway","city":"Chicago","state":"Illinois","zip":"60697"},
{"street":"6 Carey Trail","city":"Springfield","state":"Illinois","zip":"62756"},
{"street":"5 Lyons Center","city":"Columbus","state":"Ohio","zip":"43226"},
{"street":"199 Lindbergh Hill","city":"Wichita","state":"Kansas","zip":"67215"},
{"street":"939 Bluestem Crossing","city":"Oklahoma City","state":"Oklahoma","zip":"73197"},
{"street":"86 Raven Pass","city":"San Bernardino","state":"California","zip":"92405"},
{"street":"06835 4th Alley","city":"New Hyde Park","state":"New York","zip":"11044"},
{"street":"280 Farwell Plaza","city":"Sacramento","state":"California","zip":"94263"},
{"street":"19 Bluestem Place","city":"Shreveport","state":"Louisiana","zip":"71115"},
{"street":"93508 Summerview Avenue","city":"Springfield","state":"Massachusetts","zip":"01129"},
{"street":"3096 Luster Lane","city":"Akron","state":"Ohio","zip":"44393"},
{"street":"546 Hauk Circle","city":"Clearwater","state":"Florida","zip":"34620"},
{"street":"04 Ludington Terrace","city":"Flushing","state":"New York","zip":"11355"},
{"street":"362 Oakridge Court","city":"San Francisco","state":"California","zip":"94159"},
{"street":"986 Comanche Avenue","city":"Marietta","state":"Georgia","zip":"30061"},
{"street":"16 Rusk Hill","city":"Salt Lake City","state":"Utah","zip":"84105"},
{"street":"568 Nevada Plaza","city":"El Paso","state":"Texas","zip":"88541"},
{"street":"24753 Delaware Parkway","city":"Glendale","state":"California","zip":"91205"},
{"street":"0975 Morningstar Road","city":"Detroit","state":"Michigan","zip":"48295"},
{"street":"8 Butterfield Point","city":"Huntington","state":"West Virginia","zip":"25775"},
{"street":"47212 Lighthouse Bay Alley","city":"Charlottesville","state":"Virginia","zip":"22903"},
{"street":"9 Blue Bill Park Pass","city":"Glendale","state":"California","zip":"91210"},
{"street":"2259 Butternut Court","city":"Jackson","state":"Mississippi","zip":"39216"},
{"street":"3534 Sachtjen Place","city":"Omaha","state":"Nebraska","zip":"68197"},
{"street":"408 Sunnyside Trail","city":"Richmond","state":"Virginia","zip":"23277"},
{"street":"0 Golf Point","city":"Herndon","state":"Virginia","zip":"22070"},
{"street":"4 Erie Drive","city":"Boulder","state":"Colorado","zip":"80305"},
{"street":"82272 International Trail","city":"Des Moines","state":"Iowa","zip":"50369"},
{"street":"85 Washington Park","city":"Scranton","state":"Pennsylvania","zip":"18514"},
{"street":"5747 Spohn Drive","city":"Cincinnati","state":"Ohio","zip":"45228"},
{"street":"8623 Golden Leaf Center","city":"Phoenix","state":"Arizona","zip":"85045"},
{"street":"23 Basil Avenue","city":"Hartford","state":"Connecticut","zip":"06120"},
{"street":"2 Schlimgen Point","city":"Jamaica","state":"New York","zip":"11480"},
{"street":"6 Bunting Lane","city":"Naples","state":"Florida","zip":"34114"},
{"street":"204 Merry Lane","city":"New York City","state":"New York","zip":"10039"},
{"street":"1873 Oakridge Place","city":"Atlanta","state":"Georgia","zip":"30351"},
{"street":"2 Fulton Circle","city":"Philadelphia","state":"Pennsylvania","zip":"19131"},
{"street":"123 Transport Road","city":"Warren","state":"Michigan","zip":"48092"},
{"street":"47 Daystar Terrace","city":"Sioux Falls","state":"South Dakota","zip":"57188"},
{"street":"4 American Lane","city":"Hicksville","state":"New York","zip":"11854"},
{"street":"18 Logan Point","city":"Naperville","state":"Illinois","zip":"60567"},
{"street":"78 Colorado Point","city":"Roanoke","state":"Virginia","zip":"24034"},
{"street":"64359 Artisan Place","city":"Grand Rapids","state":"Michigan","zip":"49544"},
{"street":"658 Canary Pass","city":"Sacramento","state":"California","zip":"94280"},
{"street":"3 Brown Trail","city":"Sioux Falls","state":"South Dakota","zip":"57188"},
{"street":"472 Bowman Place","city":"Indianapolis","state":"Indiana","zip":"46239"},
{"street":"2035 Judy Avenue","city":"Mobile","state":"Alabama","zip":"36628"},
{"street":"5 Barby Crossing","city":"Kansas City","state":"Missouri","zip":"64109"},
{"street":"1910 Michigan Avenue","city":"Portsmouth","state":"Virginia","zip":"23705"},
{"street":"2161 Dennis Lane","city":"Los Angeles","state":"California","zip":"90030"},
{"street":"5198 Portage Avenue","city":"Port Charlotte","state":"Florida","zip":"33954"},
{"street":"72281 Prairieview Pass","city":"Arlington","state":"Texas","zip":"76004"},
{"street":"18628 Russell Point","city":"Nashville","state":"Tennessee","zip":"37205"},
{"street":"28217 Raven Trail","city":"Pompano Beach","state":"Florida","zip":"33069"},
{"street":"6 Southridge Terrace","city":"Kingsport","state":"Tennessee","zip":"37665"},
{"street":"3516 Katie Court","city":"Arlington","state":"Texas","zip":"76096"},
{"street":"1 1st Parkway","city":"Miami","state":"Florida","zip":"33190"},
{"street":"94 Stuart Plaza","city":"Beaufort","state":"South Carolina","zip":"29905"},
{"street":"9 Weeping Birch Way","city":"Des Moines","state":"Iowa","zip":"50320"},
{"street":"5 Melby Court","city":"Topeka","state":"Kansas","zip":"66629"},
{"street":"568 Susan Junction","city":"New Haven","state":"Connecticut","zip":"06538"},
{"street":"4 Bobwhite Way","city":"Fort Lauderdale","state":"Florida","zip":"33336"},
{"street":"8319 Service Place","city":"Santa Ana","state":"California","zip":"92705"},
{"street":"44 Main Trail","city":"Great Neck","state":"New York","zip":"11024"},
{"street":"37375 Claremont Parkway","city":"Lees Summit","state":"Missouri","zip":"64082"},
{"street":"51 Melody Court","city":"Charleston","state":"West Virginia","zip":"25326"},
{"street":"594 Dennis Junction","city":"Pittsburgh","state":"Pennsylvania","zip":"15286"},
{"street":"37927 Basil Drive","city":"Oklahoma City","state":"Oklahoma","zip":"73173"},
{"street":"3 Heath Alley","city":"Tallahassee","state":"Florida","zip":"32399"},
{"street":"08 Loomis Parkway","city":"Charlotte","state":"North Carolina","zip":"28289"},
{"street":"37387 7th Parkway","city":"Lincoln","state":"Nebraska","zip":"68517"},
{"street":"76 Cambridge Terrace","city":"Toledo","state":"Ohio","zip":"43635"},
{"street":"95073 Colorado Parkway","city":"Davenport","state":"Iowa","zip":"52804"},
{"street":"2399 Cardinal Avenue","city":"Augusta","state":"Georgia","zip":"30911"},
{"street":"699 Elmside Plaza","city":"Atlanta","state":"Georgia","zip":"31106"},
{"street":"26206 Glacier Hill Way","city":"Columbia","state":"Missouri","zip":"65211"},
{"street":"62 Redwing Circle","city":"Washington","state":"District of Columbia","zip":"20557"},
{"street":"1 Mandrake Circle","city":"Houston","state":"Texas","zip":"77035"},
{"street":"286 Northport Lane","city":"Fayetteville","state":"North Carolina","zip":"28305"},
{"street":"0 Huxley Junction","city":"El Paso","state":"Texas","zip":"79989"},
{"street":"79 Glacier Hill Place","city":"El Paso","state":"Texas","zip":"88546"},
{"street":"4503 Superior Court","city":"Pomona","state":"California","zip":"91797"},
{"street":"1 Goodland Point","city":"Austin","state":"Texas","zip":"78703"},
{"street":"63 Ludington Street","city":"Spokane","state":"Washington","zip":"99210"},
{"street":"6970 Gerald Road","city":"Tyler","state":"Texas","zip":"75710"},
{"street":"7 Troy Terrace","city":"Tulsa","state":"Oklahoma","zip":"74149"},
{"street":"57 Bellgrove Junction","city":"Topeka","state":"Kansas","zip":"66642"},
{"street":"1695 Buell Junction","city":"Austin","state":"Texas","zip":"78778"},
{"street":"65721 Cascade Lane","city":"Saint Louis","state":"Missouri","zip":"63136"},
{"street":"0320 Montana Plaza","city":"Hartford","state":"Connecticut","zip":"06152"},
{"street":"7 Mockingbird Way","city":"Memphis","state":"Tennessee","zip":"38197"},
{"street":"7 Banding Terrace","city":"Shawnee Mission","state":"Kansas","zip":"66220"},
{"street":"79774 Lillian Crossing","city":"North Las Vegas","state":"Nevada","zip":"89036"},
{"street":"634 Sycamore Place","city":"Montgomery","state":"Alabama","zip":"36125"},
{"street":"0148 Twin Pines Pass","city":"Naples","state":"Florida","zip":"34114"},
{"street":"62 Moose Hill","city":"Austin","state":"Texas","zip":"78759"},
{"street":"81675 Bowman Circle","city":"Saint Paul","state":"Minnesota","zip":"55115"},
{"street":"4564 Dryden Junction","city":"Atlanta","state":"Georgia","zip":"30328"},
{"street":"4 Redwing Place","city":"Peoria","state":"Arizona","zip":"85383"},
{"street":"31 Clyde Gallagher Lane","city":"Washington","state":"District of Columbia","zip":"20041"},
{"street":"8582 Swallow Center","city":"Oklahoma City","state":"Oklahoma","zip":"73167"},
{"street":"2 Weeping Birch Lane","city":"Hagerstown","state":"Maryland","zip":"21747"},
{"street":"8313 Haas Avenue","city":"Boise","state":"Idaho","zip":"83711"},
{"street":"6 Granby Place","city":"El Paso","state":"Texas","zip":"88546"},
{"street":"14397 Clarendon Court","city":"Amarillo","state":"Texas","zip":"79105"},
{"street":"236 Bluestem Way","city":"Mount Vernon","state":"New York","zip":"10557"},
{"street":"3521 Hermina Drive","city":"Miami","state":"Florida","zip":"33169"},
{"street":"4162 Spohn Trail","city":"Baltimore","state":"Maryland","zip":"21203"},
{"street":"9 Amoth Circle","city":"Littleton","state":"Colorado","zip":"80127"},
{"street":"02 Gateway Trail","city":"Fullerton","state":"California","zip":"92835"},
{"street":"694 Susan Crossing","city":"Louisville","state":"Kentucky","zip":"40287"},
{"street":"43594 Tennyson Trail","city":"Reston","state":"Virginia","zip":"22096"},
{"street":"1155 Swallow Place","city":"Scottsdale","state":"Arizona","zip":"85255"},
{"street":"13266 Dottie Alley","city":"New York City","state":"New York","zip":"10270"},
{"street":"4 Truax Pass","city":"San Jose","state":"California","zip":"95128"},
{"street":"35 Mayfield Park","city":"Dallas","state":"Texas","zip":"75387"},
{"street":"32 Riverside Hill","city":"Pittsburgh","state":"Pennsylvania","zip":"15220"},
{"street":"3 Morning Junction","city":"Naples","state":"Florida","zip":"34108"},
{"street":"8306 Sugar Avenue","city":"Nashville","state":"Tennessee","zip":"37210"},
{"street":"28275 Kipling Terrace","city":"Orange","state":"California","zip":"92867"},
{"street":"49801 Jenifer Crossing","city":"Utica","state":"New York","zip":"13505"},
{"street":"15 Fair Oaks Junction","city":"Tacoma","state":"Washington","zip":"98411"},
{"street":"08752 Banding Pass","city":"Southfield","state":"Michigan","zip":"48076"},
{"street":"39 Goodland Park","city":"Brooklyn","state":"New York","zip":"11225"},
{"street":"246 John Wall Terrace","city":"Fort Wayne","state":"Indiana","zip":"46805"},
{"street":"25 Prairieview Center","city":"Los Angeles","state":"California","zip":"90065"},
{"street":"22 Ludington Junction","city":"San Jose","state":"California","zip":"95118"},
{"street":"52 Mandrake Plaza","city":"Boulder","state":"Colorado","zip":"80305"},
{"street":"06 Saint Paul Park","city":"Boise","state":"Idaho","zip":"83722"},
{"street":"413 Meadow Ridge Way","city":"Des Moines","state":"Iowa","zip":"50393"},
{"street":"06 Pierstorff Court","city":"Decatur","state":"Illinois","zip":"62525"},
{"street":"30 Mallory Road","city":"Oklahoma City","state":"Oklahoma","zip":"73190"},
{"street":"8 Hauk Lane","city":"Sarasota","state":"Florida","zip":"34238"},
{"street":"1 Charing Cross Pass","city":"Nashville","state":"Tennessee","zip":"37240"},
{"street":"978 Sauthoff Terrace","city":"New Orleans","state":"Louisiana","zip":"70174"},
{"street":"14 Forest Run Alley","city":"Miami","state":"Florida","zip":"33175"},
{"street":"9906 Sage Park","city":"Philadelphia","state":"Pennsylvania","zip":"19146"},
{"street":"66 South Pass","city":"Virginia Beach","state":"Virginia","zip":"23454"},
{"street":"8 Pleasure Court","city":"Fort Wayne","state":"Indiana","zip":"46814"},
{"street":"26 South Hill","city":"Charleston","state":"West Virginia","zip":"25321"},
{"street":"54549 Stang Way","city":"Nashville","state":"Tennessee","zip":"37228"},
{"street":"59410 Southridge Road","city":"Denver","state":"Colorado","zip":"80217"},
{"street":"38361 Pankratz Junction","city":"Littleton","state":"Colorado","zip":"80127"},
{"street":"36 Messerschmidt Terrace","city":"Arlington","state":"Virginia","zip":"22205"},
{"street":"9 Hoffman Avenue","city":"Paterson","state":"New Jersey","zip":"07522"},
{"street":"17256 Cambridge Parkway","city":"New York City","state":"New York","zip":"10170"},
{"street":"4097 Hollow Ridge Plaza","city":"White Plains","state":"New York","zip":"10633"},
{"street":"7417 Lien Center","city":"Akron","state":"Ohio","zip":"44393"},
{"street":"43 Memorial Trail","city":"Bronx","state":"New York","zip":"10459"},
{"street":"223 5th Way","city":"Tucson","state":"Arizona","zip":"85725"},
{"street":"77301 Melrose Lane","city":"Chicago","state":"Illinois","zip":"60691"},
{"street":"824 Village Road","city":"Long Beach","state":"California","zip":"90805"},
{"street":"9 Golf Drive","city":"Indianapolis","state":"Indiana","zip":"46202"},
{"street":"217 Drewry Trail","city":"Hayward","state":"California","zip":"94544"},
{"street":"77 Sloan Lane","city":"Fresno","state":"California","zip":"93726"},
{"street":"3472 Cody Plaza","city":"Minneapolis","state":"Minnesota","zip":"55480"},
{"street":"47973 Service Crossing","city":"Hagerstown","state":"Maryland","zip":"21747"},
{"street":"2 Surrey Trail","city":"Santa Clara","state":"California","zip":"95054"},
{"street":"32 Farwell Crossing","city":"Littleton","state":"Colorado","zip":"80126"},
{"street":"7 Moland Crossing","city":"Juneau","state":"Alaska","zip":"99812"},
{"street":"227 Lunder Crossing","city":"Washington","state":"District of Columbia","zip":"20244"},
{"street":"76 East Drive","city":"Memphis","state":"Tennessee","zip":"38131"},
{"street":"64 Dakota Place","city":"New Haven","state":"Connecticut","zip":"06538"},
{"street":"63441 Westridge Parkway","city":"Grand Rapids","state":"Michigan","zip":"49505"},
{"street":"2662 Gateway Road","city":"Hicksville","state":"New York","zip":"11854"},
{"street":"2107 Caliangt Alley","city":"Tyler","state":"Texas","zip":"75799"},
{"street":"0 Debs Alley","city":"Brooklyn","state":"New York","zip":"11236"},
{"street":"1 Loomis Place","city":"Orlando","state":"Florida","zip":"32868"},
{"street":"07658 American Ash Plaza","city":"Columbus","state":"Ohio","zip":"43215"},
{"street":"39922 Union Avenue","city":"Phoenix","state":"Arizona","zip":"85083"},
{"street":"9026 Burrows Way","city":"El Paso","state":"Texas","zip":"88541"},
{"street":"9115 8th Parkway","city":"North Little Rock","state":"Arkansas","zip":"72118"},
{"street":"4 Merrick Crossing","city":"Atlanta","state":"Georgia","zip":"30328"},
{"street":"75 Moose Court","city":"Durham","state":"North Carolina","zip":"27705"},
{"street":"15620 Graceland Pass","city":"Daytona Beach","state":"Florida","zip":"32118"},
{"street":"69 Thackeray Alley","city":"Columbus","state":"Ohio","zip":"43215"},
{"street":"78 Almo Pass","city":"Baltimore","state":"Maryland","zip":"21239"},
{"street":"41 Arapahoe Trail","city":"Tulsa","state":"Oklahoma","zip":"74126"},
{"street":"97452 New Castle Junction","city":"Bakersfield","state":"California","zip":"93305"},
{"street":"263 Old Gate Hill","city":"Orlando","state":"Florida","zip":"32854"},
{"street":"9684 Morningstar Circle","city":"Boston","state":"Massachusetts","zip":"02203"},
{"street":"757 Armistice Circle","city":"Lakeland","state":"Florida","zip":"33811"},
{"street":"6 Waxwing Place","city":"Raleigh","state":"North Carolina","zip":"27615"},
{"street":"21642 West Terrace","city":"Whittier","state":"California","zip":"90610"},
{"street":"7 Garrison Plaza","city":"Shreveport","state":"Louisiana","zip":"71137"},
{"street":"6 Swallow Road","city":"Johnstown","state":"Pennsylvania","zip":"15906"},
{"street":"22857 Judy Hill","city":"Plano","state":"Texas","zip":"75074"},
{"street":"95967 Raven Avenue","city":"Oklahoma City","state":"Oklahoma","zip":"73142"},
{"street":"130 Sachs Drive","city":"New Orleans","state":"Louisiana","zip":"70149"},
{"street":"0092 Bayside Parkway","city":"Fort Worth","state":"Texas","zip":"76147"},
{"street":"736 Grim Street","city":"Buffalo","state":"New York","zip":"14269"},
{"street":"15664 Sycamore Court","city":"Garland","state":"Texas","zip":"75044"},
{"street":"5 East Terrace","city":"Hamilton","state":"Ohio","zip":"45020"},
{"street":"215 Ridgeway Plaza","city":"Honolulu","state":"Hawaii","zip":"96805"},
{"street":"804 Nevada Circle","city":"Syracuse","state":"New York","zip":"13251"},
{"street":"887 Mayer Avenue","city":"Saint Paul","state":"Minnesota","zip":"55108"},
{"street":"580 Harbort Circle","city":"Richmond","state":"Virginia","zip":"23289"},
{"street":"0 Sugar Lane","city":"Salt Lake City","state":"Utah","zip":"84199"},
{"street":"68 Dryden Trail","city":"Portland","state":"Oregon","zip":"97240"},
{"street":"6532 Cody Way","city":"Lexington","state":"Kentucky","zip":"40505"},
{"street":"1 Northport Point","city":"Dallas","state":"Texas","zip":"75221"},
{"street":"0114 Havey Hill","city":"Washington","state":"District of Columbia","zip":"20231"},
{"street":"55 Mitchell Road","city":"Columbia","state":"South Carolina","zip":"29225"},
{"street":"60 Oxford Drive","city":"Murfreesboro","state":"Tennessee","zip":"37131"},
{"street":"2 Oxford Place","city":"Memphis","state":"Tennessee","zip":"38126"},
{"street":"6 Stone Corner Place","city":"Oklahoma City","state":"Oklahoma","zip":"73129"},
{"street":"53157 Bunker Hill Street","city":"Seminole","state":"Florida","zip":"34642"},
{"street":"09503 Aberg Lane","city":"Lehigh Acres","state":"Florida","zip":"33972"},
{"street":"84 Upham Road","city":"Santa Fe","state":"New Mexico","zip":"87505"},
{"street":"6213 Grayhawk Crossing","city":"Columbus","state":"Ohio","zip":"43268"},
{"street":"5859 Elgar Parkway","city":"New York City","state":"New York","zip":"10039"},
{"street":"17 Memorial Court","city":"Tampa","state":"Florida","zip":"33647"},
{"street":"6 Village Park","city":"Springfield","state":"Massachusetts","zip":"01129"},
{"street":"7966 2nd Alley","city":"Kansas City","state":"Missouri","zip":"64149"},
{"street":"09402 Pierstorff Parkway","city":"Grand Forks","state":"North Dakota","zip":"58207"},
{"street":"51267 Delladonna Point","city":"Huntington Beach","state":"California","zip":"92648"},
{"street":"89583 Weeping Birch Road","city":"Las Vegas","state":"Nevada","zip":"89105"},
{"street":"2647 Ruskin Alley","city":"Charlotte","state":"North Carolina","zip":"28289"},
{"street":"48 Sundown Trail","city":"Charlotte","state":"North Carolina","zip":"28278"},
{"street":"254 Corben Road","city":"Washington","state":"District of Columbia","zip":"20436"},
{"street":"11582 Dakota Center","city":"Kansas City","state":"Missouri","zip":"64190"},
{"street":"87868 Browning Circle","city":"San Jose","state":"California","zip":"95108"},
{"street":"7 Menomonie Point","city":"Fort Worth","state":"Texas","zip":"76192"},
{"street":"26611 Tennessee Terrace","city":"Greenville","state":"South Carolina","zip":"29605"},
{"street":"22 Westerfield Park","city":"Miami","state":"Florida","zip":"33169"},
{"street":"873 Algoma Terrace","city":"Tampa","state":"Florida","zip":"33694"},
{"street":"672 Delaware Point","city":"Bloomington","state":"Illinois","zip":"61709"},
{"street":"741 Helena Park","city":"San Jose","state":"California","zip":"95155"},
{"street":"9285 Vernon Junction","city":"Seattle","state":"Washington","zip":"98185"},
{"street":"6518 Westend Trail","city":"Longview","state":"Texas","zip":"75605"},
{"street":"183 Pond Circle","city":"Rochester","state":"New York","zip":"14609"},
{"street":"282 West Crossing","city":"El Paso","state":"Texas","zip":"79934"},
{"street":"34 Clyde Gallagher Road","city":"Miami","state":"Florida","zip":"33134"},
{"street":"4 2nd Avenue","city":"New York City","state":"New York","zip":"10155"},
{"street":"5 Mariners Cove Way","city":"Hartford","state":"Connecticut","zip":"06140"},
{"street":"36303 Iowa Hill","city":"Durham","state":"North Carolina","zip":"27705"},
{"street":"67 Glacier Hill Center","city":"Lubbock","state":"Texas","zip":"79452"},
{"street":"399 Arkansas Point","city":"Austin","state":"Texas","zip":"78783"},
{"street":"4 Dunning Road","city":"Charleston","state":"South Carolina","zip":"29416"},
{"street":"39 Warrior Circle","city":"Des Moines","state":"Iowa","zip":"50315"},
{"street":"8 Elgar Way","city":"Indianapolis","state":"Indiana","zip":"46266"},
{"street":"54576 Manitowish Alley","city":"Irving","state":"Texas","zip":"75037"},
{"street":"57 Forest Dale Point","city":"Topeka","state":"Kansas","zip":"66611"},
{"street":"575 Merry Lane","city":"Lynchburg","state":"Virginia","zip":"24503"},
{"street":"1 Randy Lane","city":"Kansas City","state":"Missouri","zip":"64101"},
{"street":"2552 Acker Crossing","city":"San Bernardino","state":"California","zip":"92415"},
{"street":"07 Menomonie Drive","city":"Abilene","state":"Texas","zip":"79699"},
{"street":"72 Talisman Hill","city":"Washington","state":"District of Columbia","zip":"20231"},
{"street":"59 Eagle Crest Trail","city":"El Paso","state":"Texas","zip":"79905"},
{"street":"311 Mayer Trail","city":"Roanoke","state":"Virginia","zip":"24004"},
{"street":"491 Bowman Way","city":"Mc Keesport","state":"Pennsylvania","zip":"15134"},
{"street":"685 Gulseth Center","city":"Syracuse","state":"New York","zip":"13210"},
{"street":"3653 Beilfuss Street","city":"Punta Gorda","state":"Florida","zip":"33982"},
{"street":"491 Crescent Oaks Parkway","city":"Lynchburg","state":"Virginia","zip":"24503"},
{"street":"2 Walton Terrace","city":"New York City","state":"New York","zip":"10120"},
{"street":"67517 Esker Road","city":"Columbus","state":"Ohio","zip":"43240"},
{"street":"875 Old Gate Court","city":"Des Moines","state":"Iowa","zip":"50305"},
{"street":"85757 Barnett Trail","city":"Houston","state":"Texas","zip":"77040"},
{"street":"0786 Canary Park","city":"Denton","state":"Texas","zip":"76210"},
{"street":"72 Larry Drive","city":"Shreveport","state":"Louisiana","zip":"71137"},
{"street":"9 Welch Park","city":"Lansing","state":"Michigan","zip":"48901"},
{"street":"4 Loftsgordon Pass","city":"Washington","state":"District of Columbia","zip":"20268"},
{"street":"03 Brentwood Alley","city":"Fort Worth","state":"Texas","zip":"76105"},
{"street":"6604 7th Drive","city":"Philadelphia","state":"Pennsylvania","zip":"19131"},
{"street":"0942 Hanson Crossing","city":"Richmond","state":"Virginia","zip":"23228"},
{"street":"02324 Marcy Lane","city":"Pocatello","state":"Idaho","zip":"83206"},
{"street":"94 Dapin Point","city":"Daytona Beach","state":"Florida","zip":"32118"},
{"street":"46 Harbort Circle","city":"Washington","state":"District of Columbia","zip":"20260"},
{"street":"0 Dwight Drive","city":"San Antonio","state":"Texas","zip":"78296"},
{"street":"3061 Buhler Road","city":"Troy","state":"Michigan","zip":"48098"},
{"street":"3 American Park","city":"Newark","state":"New Jersey","zip":"07195"},
{"street":"71 Armistice Park","city":"Everett","state":"Washington","zip":"98206"},
{"street":"876 Gerald Place","city":"Portland","state":"Oregon","zip":"97240"},
{"street":"597 Daystar Park","city":"Fresno","state":"California","zip":"93726"},
{"street":"8 Golf Course Parkway","city":"Charlotte","state":"North Carolina","zip":"28299"},
{"street":"0 Brentwood Drive","city":"Houston","state":"Texas","zip":"77090"},
{"street":"0 Scott Pass","city":"Santa Fe","state":"New Mexico","zip":"87505"},
{"street":"397 Mesta Way","city":"Miami","state":"Florida","zip":"33134"},
{"street":"4 Green Ridge Street","city":"Springfield","state":"Missouri","zip":"65810"},
{"street":"2 Heath Terrace","city":"Milwaukee","state":"Wisconsin","zip":"53215"},
{"street":"8 Rutledge Terrace","city":"Schenectady","state":"New York","zip":"12305"},
{"street":"210 Mendota Place","city":"Washington","state":"District of Columbia","zip":"20057"},
{"street":"167 Kingsford Point","city":"Charleston","state":"West Virginia","zip":"25305"},
{"street":"17 Mallory Street","city":"Bronx","state":"New York","zip":"10454"},
{"street":"94 Washington Pass","city":"Santa Ana","state":"California","zip":"92725"},
{"street":"932 Lighthouse Bay Drive","city":"Denver","state":"Colorado","zip":"80235"},
{"street":"56 Starling Alley","city":"Tallahassee","state":"Florida","zip":"32399"},
{"street":"867 Gulseth Junction","city":"Moreno Valley","state":"California","zip":"92555"},
{"street":"7 South Place","city":"Frankfort","state":"Kentucky","zip":"40618"},
{"street":"07399 Granby Point","city":"Las Vegas","state":"Nevada","zip":"89193"},
{"street":"286 Mccormick Parkway","city":"Midland","state":"Michigan","zip":"48670"},
{"street":"6220 Stephen Court","city":"Washington","state":"District of Columbia","zip":"20244"},
{"street":"885 Shoshone Point","city":"Austin","state":"Texas","zip":"78703"},
{"street":"319 Fair Oaks Plaza","city":"Mount Vernon","state":"New York","zip":"10557"},
{"street":"295 Dapin Trail","city":"Santa Clara","state":"California","zip":"95054"},
{"street":"67 Melody Place","city":"Brooklyn","state":"New York","zip":"11236"},
{"street":"71 Bunker Hill Plaza","city":"San Jose","state":"California","zip":"95155"},
{"street":"61 Elgar Hill","city":"Miami","state":"Florida","zip":"33124"},
{"street":"138 Hagan Hill","city":"New Orleans","state":"Louisiana","zip":"70160"},
{"street":"35588 Darwin Way","city":"Ogden","state":"Utah","zip":"84403"},
{"street":"6155 Fremont Road","city":"Salt Lake City","state":"Utah","zip":"84130"},
{"street":"489 Crest Line Crossing","city":"Sioux Falls","state":"South Dakota","zip":"57110"},
{"street":"122 Gateway Road","city":"Columbus","state":"Ohio","zip":"43231"},
{"street":"41610 Cambridge Court","city":"Brooklyn","state":"New York","zip":"11254"},
{"street":"9290 American Ash Court","city":"Topeka","state":"Kansas","zip":"66699"},
{"street":"2236 Drewry Junction","city":"San Antonio","state":"Texas","zip":"78260"},
{"street":"5 Thompson Point","city":"Washington","state":"District of Columbia","zip":"20029"},
{"street":"95102 Atwood Hill","city":"Springfield","state":"Massachusetts","zip":"01129"},
{"street":"333 Mendota Street","city":"Cleveland","state":"Ohio","zip":"44111"},
{"street":"9 Cottonwood Circle","city":"Oklahoma City","state":"Oklahoma","zip":"73157"},
{"street":"38 East Trail","city":"Virginia Beach","state":"Virginia","zip":"23464"},
{"street":"184 Ramsey Drive","city":"Sioux Falls","state":"South Dakota","zip":"57105"},
{"street":"04 Ridgeview Terrace","city":"Saginaw","state":"Michigan","zip":"48609"},
{"street":"592 Mcbride Lane","city":"Oakland","state":"California","zip":"94605"},
{"street":"08 Kingsford Crossing","city":"New Bedford","state":"Massachusetts","zip":"02745"},
{"street":"6193 Butternut Center","city":"Torrance","state":"California","zip":"90510"},
{"street":"180 Messerschmidt Road","city":"Migrate","state":"Kentucky","zip":"41905"},
{"street":"74261 Warner Road","city":"Iowa City","state":"Iowa","zip":"52245"},
{"street":"77 Ridge Oak Center","city":"Washington","state":"District of Columbia","zip":"20051"},
{"street":"1 Northwestern Circle","city":"Milwaukee","state":"Wisconsin","zip":"53205"},
{"street":"25738 Knutson Trail","city":"Louisville","state":"Kentucky","zip":"40280"},
{"street":"4 Stang Park","city":"Fayetteville","state":"North Carolina","zip":"28314"},
{"street":"28 Southridge Parkway","city":"Albany","state":"New York","zip":"12222"},
{"street":"3569 Talisman Parkway","city":"Oklahoma City","state":"Oklahoma","zip":"73114"},
{"street":"46 Fremont Crossing","city":"Memphis","state":"Tennessee","zip":"38143"},
{"street":"4 Mallory Center","city":"Terre Haute","state":"Indiana","zip":"47805"},
{"street":"8 Summerview Court","city":"Corpus Christi","state":"Texas","zip":"78475"},
{"street":"5065 Merrick Alley","city":"Los Angeles","state":"California","zip":"90015"},
{"street":"179 Roxbury Lane","city":"Salt Lake City","state":"Utah","zip":"84170"},
{"street":"69 Farwell Pass","city":"Washington","state":"District of Columbia","zip":"20566"},
{"street":"5 Oak Valley Terrace","city":"Washington","state":"District of Columbia","zip":"20551"},
{"street":"4 Green Place","city":"Yakima","state":"Washington","zip":"98907"},
{"street":"6 Mallory Way","city":"Omaha","state":"Nebraska","zip":"68110"},
{"street":"18608 Towne Pass","city":"Austin","state":"Texas","zip":"78759"},
{"street":"9805 Mariners Cove Way","city":"Washington","state":"District of Columbia","zip":"20016"},
{"street":"0 Eastlawn Alley","city":"Raleigh","state":"North Carolina","zip":"27621"},
{"street":"6998 Cherokee Parkway","city":"Biloxi","state":"Mississippi","zip":"39534"},
{"street":"761 Rutledge Way","city":"Philadelphia","state":"Pennsylvania","zip":"19120"},
{"street":"10 Monica Lane","city":"Washington","state":"District of Columbia","zip":"20420"},
{"street":"2699 High Crossing Park","city":"Colorado Springs","state":"Colorado","zip":"80945"},
{"street":"8744 Del Sol Way","city":"Alexandria","state":"Virginia","zip":"22313"},
{"street":"7665 Elka Hill","city":"Port Charlotte","state":"Florida","zip":"33954"},
{"street":"06 Vera Junction","city":"Topeka","state":"Kansas","zip":"66611"},
{"street":"097 Reindahl Pass","city":"Columbia","state":"South Carolina","zip":"29203"},
{"street":"01505 Moland Pass","city":"Houston","state":"Texas","zip":"77080"},
{"street":"7066 Mendota Lane","city":"Juneau","state":"Alaska","zip":"99812"},
{"street":"1 Northwestern Parkway","city":"South Bend","state":"Indiana","zip":"46620"},
{"street":"00066 Anhalt Road","city":"Southfield","state":"Michigan","zip":"48076"},
{"street":"98970 Warner Pass","city":"Charlotte","state":"North Carolina","zip":"28299"},
{"street":"3174 Drewry Hill","city":"San Diego","state":"California","zip":"92196"},
{"street":"37 Hayes Parkway","city":"Newton","state":"Massachusetts","zip":"02458"},
{"street":"5 Elgar Point","city":"Mesa","state":"Arizona","zip":"85210"},
{"street":"42 Brickson Park Drive","city":"Austin","state":"Texas","zip":"78778"},
{"street":"70903 Briar Crest Street","city":"Phoenix","state":"Arizona","zip":"85077"},
{"street":"2645 Meadow Vale Trail","city":"Chicago","state":"Illinois","zip":"60641"},
{"street":"2 Lakewood Hill","city":"Topeka","state":"Kansas","zip":"66699"},
{"street":"08974 Anhalt Road","city":"Houston","state":"Texas","zip":"77050"},
{"street":"01 Farwell Way","city":"Stockton","state":"California","zip":"95210"},
{"street":"37 Namekagon Plaza","city":"Minneapolis","state":"Minnesota","zip":"55470"},
{"street":"6754 2nd Crossing","city":"Grand Rapids","state":"Michigan","zip":"49560"},
{"street":"94 Myrtle Park","city":"Reno","state":"Nevada","zip":"89505"},
{"street":"657 Knutson Parkway","city":"Milwaukee","state":"Wisconsin","zip":"53234"},
{"street":"2932 Dayton Road","city":"Washington","state":"District of Columbia","zip":"20442"},
{"street":"408 Kenwood Alley","city":"Lancaster","state":"California","zip":"93584"},
{"street":"57 Mifflin Terrace","city":"Detroit","state":"Michigan","zip":"48211"},
{"street":"54773 Barby Street","city":"Tucson","state":"Arizona","zip":"85725"},
{"street":"60 Messerschmidt Terrace","city":"Chicago","state":"Illinois","zip":"60697"},
{"street":"4 Fairview Point","city":"Salt Lake City","state":"Utah","zip":"84130"},
{"street":"250 Heffernan Junction","city":"Des Moines","state":"Iowa","zip":"50330"},
{"street":"108 Bartillon Junction","city":"Scottsdale","state":"Arizona","zip":"85255"},
{"street":"50 Del Sol Street","city":"Tulsa","state":"Oklahoma","zip":"74149"},
{"street":"7 Messerschmidt Plaza","city":"Washington","state":"District of Columbia","zip":"20337"},
{"street":"5301 Nevada Court","city":"Duluth","state":"Georgia","zip":"30195"},
{"street":"2760 Dahle Trail","city":"Macon","state":"Georgia","zip":"31205"},
{"street":"648 Sugar Trail","city":"San Antonio","state":"Texas","zip":"78240"},
{"street":"20 Esch Street","city":"Boulder","state":"Colorado","zip":"80328"},
{"street":"03818 Ruskin Parkway","city":"Hollywood","state":"Florida","zip":"33028"},
{"street":"320 Victoria Hill","city":"Lexington","state":"Kentucky","zip":"40510"},
{"street":"80 Weeping Birch Street","city":"Washington","state":"District of Columbia","zip":"20036"},
{"street":"034 Dwight Road","city":"Bellevue","state":"Washington","zip":"98008"},
{"street":"3 Eastwood Place","city":"Ogden","state":"Utah","zip":"84409"},
{"street":"6 Washington Circle","city":"Raleigh","state":"North Carolina","zip":"27658"},
{"street":"2663 Merry Place","city":"Wichita Falls","state":"Texas","zip":"76305"},
{"street":"3662 Beilfuss Terrace","city":"Columbus","state":"Ohio","zip":"43231"},
{"street":"43779 Petterle Pass","city":"Shreveport","state":"Louisiana","zip":"71137"},
{"street":"33 Rockefeller Junction","city":"Fargo","state":"North Dakota","zip":"58106"},
{"street":"8 Monterey Road","city":"Orlando","state":"Florida","zip":"32808"},
{"street":"8 Bowman Avenue","city":"Minneapolis","state":"Minnesota","zip":"55423"},
{"street":"43 Red Cloud Place","city":"Providence","state":"Rhode Island","zip":"02912"},
{"street":"857 Luster Drive","city":"Stockton","state":"California","zip":"95210"},
{"street":"98 Waubesa Parkway","city":"Fort Worth","state":"Texas","zip":"76115"},
{"street":"249 Corben Lane","city":"Spokane","state":"Washington","zip":"99210"},
{"street":"6721 Birchwood Center","city":"Toledo","state":"Ohio","zip":"43635"},
{"street":"3910 Service Road","city":"Tyler","state":"Texas","zip":"75799"},
{"street":"9 Troy Way","city":"Miami","state":"Florida","zip":"33124"},
{"street":"19056 Nevada Terrace","city":"Oklahoma City","state":"Oklahoma","zip":"73135"},
{"street":"78275 Oak Valley Lane","city":"Honolulu","state":"Hawaii","zip":"96835"},
{"street":"26868 Manley Road","city":"Chicago","state":"Illinois","zip":"60652"},
{"street":"02172 Coolidge Circle","city":"Lincoln","state":"Nebraska","zip":"68524"},
{"street":"15502 Lerdahl Way","city":"Orlando","state":"Florida","zip":"32825"},
{"street":"9 Washington Court","city":"Houston","state":"Texas","zip":"77288"},
{"street":"1299 Portage Hill","city":"Topeka","state":"Kansas","zip":"66611"},
{"street":"8 Westport Hill","city":"Lincoln","state":"Nebraska","zip":"68505"},
{"street":"1 Pond Parkway","city":"Arlington","state":"Texas","zip":"76096"},
{"street":"53 Village Green Road","city":"Jacksonville","state":"Florida","zip":"32225"},
{"street":"4 Sunfield Pass","city":"Baltimore","state":"Maryland","zip":"21281"},
{"street":"32 Sachs Circle","city":"Chicago","state":"Illinois","zip":"60636"},
{"street":"06 Hoffman Plaza","city":"Carson City","state":"Nevada","zip":"89706"},
{"street":"05 Little Fleur Terrace","city":"Roanoke","state":"Virginia","zip":"24048"},
{"street":"194 Clyde Gallagher Avenue","city":"Oklahoma City","state":"Oklahoma","zip":"73147"},
{"street":"32 Duke Alley","city":"Salt Lake City","state":"Utah","zip":"84115"},
{"street":"9814 Chinook Way","city":"New York City","state":"New York","zip":"10270"},
{"street":"62 Bluejay Avenue","city":"Washington","state":"District of Columbia","zip":"20215"},
{"street":"11443 Banding Drive","city":"Miami","state":"Florida","zip":"33190"},
{"street":"061 Pankratz Center","city":"Tacoma","state":"Washington","zip":"98424"},
{"street":"30 Troy Plaza","city":"Norfolk","state":"Virginia","zip":"23504"},
{"street":"0158 Memorial Center","city":"Springfield","state":"Illinois","zip":"62776"},
{"street":"5414 Ramsey Road","city":"Indianapolis","state":"Indiana","zip":"46226"},
{"street":"0211 Lakeland Place","city":"Florence","state":"South Carolina","zip":"29505"},
{"street":"1472 Fairview Lane","city":"Des Moines","state":"Iowa","zip":"50981"},
{"street":"6463 Havey Circle","city":"Portland","state":"Oregon","zip":"97211"},
{"street":"6 Scott Pass","city":"Savannah","state":"Georgia","zip":"31410"},
{"street":"23428 Heath Hill","city":"Albuquerque","state":"New Mexico","zip":"87110"},
{"street":"917 Service Circle","city":"Reno","state":"Nevada","zip":"89510"},
{"street":"30962 Mariners Cove Pass","city":"Levittown","state":"Pennsylvania","zip":"19058"},
{"street":"51 Westend Street","city":"Savannah","state":"Georgia","zip":"31405"},
{"street":"7596 Hansons Place","city":"Los Angeles","state":"California","zip":"90040"},
{"street":"83 Eagle Crest Lane","city":"Madison","state":"Wisconsin","zip":"53726"},
{"street":"188 Springs Center","city":"Philadelphia","state":"Pennsylvania","zip":"19109"},
{"street":"9 1st Point","city":"Harrisburg","state":"Pennsylvania","zip":"17105"},
{"street":"08 Buena Vista Junction","city":"San Antonio","state":"Texas","zip":"78235"},
{"street":"6 Park Meadow Street","city":"San Mateo","state":"California","zip":"94405"},
{"street":"54078 Sommers Way","city":"Charlotte","state":"North Carolina","zip":"28278"},
{"street":"79 Mesta Road","city":"New York City","state":"New York","zip":"10275"},
{"street":"78 Messerschmidt Alley","city":"Fort Pierce","state":"Florida","zip":"34949"},
{"street":"9236 Fulton Junction","city":"Anaheim","state":"California","zip":"92825"},
{"street":"33665 Sunbrook Park","city":"Memphis","state":"Tennessee","zip":"38114"},
{"street":"72801 Porter Plaza","city":"San Jose","state":"California","zip":"95128"},
{"street":"46 Arkansas Way","city":"Saint Petersburg","state":"Florida","zip":"33715"},
{"street":"4 Eggendart Point","city":"Jacksonville","state":"Florida","zip":"32209"},
{"street":"17812 Clove Lane","city":"Springfield","state":"Illinois","zip":"62776"},
{"street":"49452 Village Terrace","city":"Macon","state":"Georgia","zip":"31296"},
{"street":"53683 Goodland Drive","city":"Chicago","state":"Illinois","zip":"60630"},
{"street":"3145 Mcbride Road","city":"Stamford","state":"Connecticut","zip":"06905"},
{"street":"0 Sachtjen Lane","city":"Shreveport","state":"Louisiana","zip":"71105"},
{"street":"947 Ryan Center","city":"Vancouver","state":"Washington","zip":"98664"},
{"street":"0279 Doe Crossing Hill","city":"Los Angeles","state":"California","zip":"90071"},
{"street":"781 Marquette Park","city":"Santa Ana","state":"California","zip":"92705"},
{"street":"01 Esker Trail","city":"Amarillo","state":"Texas","zip":"79105"},
{"street":"09 Kipling Road","city":"Palm Bay","state":"Florida","zip":"32909"},
{"street":"5 Nelson Alley","city":"Savannah","state":"Georgia","zip":"31416"},
{"street":"5671 Eagan Point","city":"Birmingham","state":"Alabama","zip":"35220"},
{"street":"3 Utah Drive","city":"Odessa","state":"Texas","zip":"79769"},
{"street":"55906 Mariners Cove Park","city":"Las Cruces","state":"New Mexico","zip":"88006"},
{"street":"2256 Fisk Avenue","city":"Tampa","state":"Florida","zip":"33694"},
{"street":"6 Alpine Alley","city":"Fort Lauderdale","state":"Florida","zip":"33310"},
{"street":"339 Wayridge Terrace","city":"Daytona Beach","state":"Florida","zip":"32123"},
{"street":"98 Marquette Park","city":"Athens","state":"Georgia","zip":"30610"},
{"street":"307 Beilfuss Alley","city":"Amarillo","state":"Texas","zip":"79176"},
{"street":"96200 Ludington Junction","city":"Dearborn","state":"Michigan","zip":"48126"},
{"street":"90 Columbus Lane","city":"Jamaica","state":"New York","zip":"11480"},
{"street":"8376 Holy Cross Place","city":"Los Angeles","state":"California","zip":"90005"},
{"street":"4 Hallows Lane","city":"Houston","state":"Texas","zip":"77055"},
{"street":"2894 Fuller Plaza","city":"Houston","state":"Texas","zip":"77234"},
{"street":"6266 Kennedy Terrace","city":"Birmingham","state":"Alabama","zip":"35285"},
{"street":"494 Spaight Junction","city":"Las Cruces","state":"New Mexico","zip":"88006"},
{"street":"0 Brickson Park Center","city":"Tucson","state":"Arizona","zip":"85725"},
{"street":"5 Troy Center","city":"Schenectady","state":"New York","zip":"12325"},
{"street":"1 Scofield Drive","city":"Saint Louis","state":"Missouri","zip":"63110"},
{"street":"94 Vahlen Parkway","city":"Las Vegas","state":"Nevada","zip":"89135"},
{"street":"200 Clyde Gallagher Point","city":"Arlington","state":"Texas","zip":"76004"},
{"street":"51543 Kim Junction","city":"Rochester","state":"New York","zip":"14614"},
{"street":"3 Fairfield Trail","city":"Cleveland","state":"Ohio","zip":"44191"},
{"street":"731 Sycamore Junction","city":"Glendale","state":"Arizona","zip":"85305"},
{"street":"12 Crownhardt Crossing","city":"Raleigh","state":"North Carolina","zip":"27615"},
{"street":"17 Mifflin Way","city":"Saint Paul","state":"Minnesota","zip":"55114"},
{"street":"0990 Butterfield Lane","city":"Elmira","state":"New York","zip":"14905"},
{"street":"386 Kennedy Avenue","city":"Elmira","state":"New York","zip":"14905"},
{"street":"10 Melvin Alley","city":"Washington","state":"District of Columbia","zip":"20551"},
{"street":"7535 Farragut Avenue","city":"Fort Pierce","state":"Florida","zip":"34981"},
{"street":"704 Comanche Parkway","city":"Gadsden","state":"Alabama","zip":"35905"},
{"street":"05908 Anthes Trail","city":"Portland","state":"Oregon","zip":"97296"},
{"street":"6 Butterfield Trail","city":"Tuscaloosa","state":"Alabama","zip":"35487"},
{"street":"19102 Reindahl Junction","city":"Grand Rapids","state":"Michigan","zip":"49510"},
{"street":"4 Russell Lane","city":"New York City","state":"New York","zip":"10079"},
{"street":"89 Oriole Park","city":"Bakersfield","state":"California","zip":"93381"},
{"street":"1 Hooker Circle","city":"Scranton","state":"Pennsylvania","zip":"18514"},
{"street":"066 Sugar Way","city":"Lexington","state":"Kentucky","zip":"40581"},
{"street":"6 Blaine Circle","city":"Springfield","state":"Illinois","zip":"62776"},
{"street":"194 Acker Drive","city":"Washington","state":"District of Columbia","zip":"20310"},
{"street":"124 Laurel Drive","city":"Tucson","state":"Arizona","zip":"85725"},
{"street":"987 Esker Junction","city":"San Diego","state":"California","zip":"92115"}]